OBJECT_NAME,OBJECT_ID,EPOCH,MEAN_MOTION,ECCENTRICITY,INCLINATION,RA_OF_ASC_NODE,ARG_OF_PERICENTER,MEAN_ANOMALY,EPHEMERIS_TYPE,CLASSIFICATION_TYPE,NORAD_CAT_ID,ELEMENT_SET_NO,REV_AT_EPOCH,BSTAR,MEAN_MOTION_DOT,MEAN_MOTION_DDOT
STARLINK-32112,2024-120B,2024-07-07T10:00:00.999936,15.92463132,.0001269,53.1506,290.5981,96.5935,1.5776,0,U,60136,999,280,-.29498E-2,-.1027478E-1,.32288E-3
STARLINK-32050,2024-120C,2024-07-07T10:00:00.999936,15.92514352,.0001216,53.1505,290.5931,100.4612,0.0815,0,U,60137,999,242,-.29654E-2,-.103559E-1,.32767E-3
STARLINK-32025,2024-120D,2024-07-07T10:00:00.999936,15.92606005,.0001204,53.1504,290.5843,94.2230,10.5928,0,U,60138,999,253,-.29773E-2,-.1044645E-1,.33318E-3
STARLINK-31867,2024-120E,2024-07-07T10:00:00.999936,15.92562091,.0001397,53.1505,290.5885,95.3041,7.4544,0,U,60139,999,259,-.29705E-2,-.1039942E-1,.33033E-3
STARLINK-31694,2024-120F,2024-07-07T10:00:00.999936,15.92646125,.000116,53.1505,290.5806,92.5451,14.0622,0,U,60140,999,280,-.29791E-2,-.1047438E-1,.33493E-3
STARLINK-32036,2024-120G,2024-07-07T10:00:00.999936,15.92683058,.0001102,53.1506,290.5774,102.0124,6.1057,0,U,60141,999,280,-.29806E-2,-.104996E-1,.33652E-3
STARLINK-32031,2024-120H,2024-07-07T10:00:00.999936,15.92724888,.0001404,53.1504,290.5731,83.2177,26.9359,0,U,60142,999,280,-.29754E-2,-.105046E-1,.33695E-3
STARLINK-32027,2024-120J,2024-07-08T02:00:01.000224,15.96510908,.0002809,53.1501,287.1364,297.9299,54.1818,0,U,60143,999,290,.99831E-3,.428219E-2,.85909E-4
STARLINK-32033,2024-120K,2024-07-07T10:00:00.999936,15.92816082,.0001447,53.1506,290.5644,90.9302,23.4376,0,U,60144,999,258,-.29879E-2,-.1059834E-1,.34272E-3
STARLINK-32029,2024-120L,2024-07-07T10:00:00.999936,15.92866242,.0000943,53.1505,290.5600,102.4337,14.1219,0,U,60145,999,264,-.30128E-2,-.1071299E-1,.34965E-3
STARLINK-32127,2024-120M,2024-07-07T10:00:00.999936,15.92898094,.0001339,53.1504,290.5568,91.9445,26.1324,0,U,60146,999,258,-.30051E-2,-.1070405E-1,.34923E-3
STARLINK-32019,2024-120N,2024-07-07T10:00:00.999936,15.92947828,.0001083,53.1503,290.5519,99.9207,20.5005,0,U,60147,999,264,-.30168E-2,-.1077276E-1,.35347E-3
STARLINK-32021,2024-120P,2024-07-07T10:00:00.999936,15.92990700,.0001184,53.1503,290.5478,90.6630,31.7756,0,U,60148,999,281,-.30187E-2,-.1080364E-1,.35546E-3
STARLINK-32022,2024-120Q,2024-07-07T10:00:00.999936,15.93022533,.0001421,53.1499,290.5451,81.3138,42.4078,0,U,60149,999,281,-.301E-2,-.10791E-1,.35482E-3
STARLINK-32014,2024-120R,2024-07-07T10:00:00.999936,15.93067636,.0001129,53.1503,290.5410,102.8534,22.8778,0,U,60150,999,264,-.30215E-2,-.1085683E-1,.35892E-3
STARLINK-32004,2024-120S,2024-07-07T10:00:00.999936,15.93165417,.0001437,53.1502,290.5310,89.0867,41.4194,0,U,60151,999,280,-.30367E-2,-.1096698E-1,.3659E-3
STARLINK-32147,2024-120T,2024-07-07T10:00:00.999936,15.93117594,.0001236,53.1504,290.5359,93.1556,35.0792,0,U,60152,999,264,-.30286E-2,-.1091054E-1,.36232E-3
STARLINK-32131,2024-120U,2024-07-07T10:00:00.999936,15.93248051,.0001061,53.1502,290.5229,76.6523,57.7700,0,U,60153,999,280,-.30311E-2,-.109937E-1,.36782E-3
STARLINK-32145,2024-120V,2024-07-07T10:00:00.999936,15.93205292,.0001064,53.1503,290.5269,89.7645,42.6626,0,U,60154,999,268,-.30268E-2,-.1095383E-1,.36525E-3
STARLINK-32137,2024-120W,2024-07-07T22:00:00.999936,15.92253555,.0001109,53.1498,287.9681,71.6642,53.6532,0,U,60155,999,270,-.32775E-2,-.112811E-1,.38172E-3
STARLINK-32048,2024-120X,2024-07-07T20:00:01.000224,15.92454972,.0001038,53.1496,288.3898,79.1179,290.0010,0,U,60156,999,270,-.31659E-2,-.1101469E-1,.36624E-3
STARLINK-32129,2024-120Y,2024-07-07T10:00:00.999936,15.93381825,.000069,53.1503,290.5104,111.4862,28.8044,0,U,60157,999,280,-.30635E-2,-.111874E-1,.38017E-3
