STARLINK-32112          
1 60136U 24120B   24189.41667824 -.01027478  32288-3 -29498-2 0  9998
2 60136  53.1506 290.5981 0001269  96.5935   1.5776 15.92463132  2809
STARLINK-32050          
1 60137U 24120C   24189.41667824 -.01035590  32767-3 -29654-2 0  9999
2 60137  53.1505 290.5931 0001216 100.4612   0.0815 15.92514352  2420
STARLINK-32025          
1 60138U 24120D   24189.41667824 -.01044645  33318-3 -29773-2 0  9996
2 60138  53.1504 290.5843 0001204  94.2230  10.5928 15.92606005  2535
STARLINK-31867          
1 60139U 24120E   24189.41667824 -.01039942  33033-3 -29705-2 0  9990
2 60139  53.1505 290.5885 0001397  95.3041   7.4544 15.92562091  2599
STARLINK-31694          
1 60140U 24120F   24189.41667824 -.01047438  33493-3 -29791-2 0  9996
2 60140  53.1505 290.5806 0001160  92.5451  14.0622 15.92646125  2802
STARLINK-32036          
1 60141U 24120G   24189.41667824 -.01049960  33652-3 -29806-2 0  9993
2 60141  53.1506 290.5774 0001102 102.0124   6.1057 15.92683058  2808
STARLINK-32031          
1 60142U 24120H   24189.41667824 -.01050460  33695-3 -29754-2 0  9990
2 60142  53.1504 290.5731 0001404  83.2177  26.9359 15.92724888  2805
STARLINK-32027          
1 60143U 24120J   24190.08334491  .00428219  85909-4  99831-3 0  9995
2 60143  53.1501 287.1364 0002809 297.9299  54.1818 15.96510908  2900
STARLINK-32033          
1 60144U 24120K   24189.41667824 -.01059834  34272-3 -29879-2 0  9996
2 60144  53.1506 290.5644 0001447  90.9302  23.4376 15.92816082  2588
STARLINK-32029          
1 60145U 24120L   24189.41667824 -.01071299  34965-3 -30128-2 0  9994
2 60145  53.1505 290.5600 0000943 102.4337  14.1219 15.92866242  2640
STARLINK-32127          
1 60146U 24120M   24189.41667824 -.01070405  34923-3 -30051-2 0  9992
2 60146  53.1504 290.5568 0001339  91.9445  26.1324 15.92898094  2588
STARLINK-32019          
1 60147U 24120N   24189.41667824 -.01077276  35347-3 -30168-2 0  9996
2 60147  53.1503 290.5519 0001083  99.9207  20.5005 15.92947828  2645
STARLINK-32021          
1 60148U 24120P   24189.41667824 -.01080364  35546-3 -30187-2 0  9991
2 60148  53.1503 290.5478 0001184  90.6630  31.7756 15.92990700  2813
STARLINK-32022          
1 60149U 24120Q   24189.41667824 -.01079100  35482-3 -30100-2 0  9992
2 60149  53.1499 290.5451 0001421  81.3138  42.4078 15.93022533  2810
STARLINK-32014          
1 60150U 24120R   24189.41667824 -.01085683  35892-3 -30215-2 0  9999
2 60150  53.1503 290.5410 0001129 102.8534  22.8778 15.93067636  2640
STARLINK-32004          
1 60151U 24120S   24189.41667824 -.01096698  36590-3 -30367-2 0  9992
2 60151  53.1502 290.5310 0001437  89.0867  41.4194 15.93165417  2809
STARLINK-32147          
1 60152U 24120T   24189.41667824 -.01091054  36232-3 -30286-2 0  9997
2 60152  53.1504 290.5359 0001236  93.1556  35.0792 15.93117594  2641
STARLINK-32131          
1 60153U 24120U   24189.41667824 -.01099370  36782-3 -30311-2 0  9996
2 60153  53.1502 290.5229 0001061  76.6523  57.7700 15.93248051  2803
STARLINK-32145          
1 60154U 24120V   24189.41667824 -.01095383  36525-3 -30268-2 0  9993
2 60154  53.1503 290.5269 0001064  89.7645  42.6626 15.93205292  2688
STARLINK-32137          
1 60155U 24120W   24189.91667824 -.01128110  38172-3 -32775-2 0  9999
2 60155  53.1498 287.9681 0001109  71.6642  53.6532 15.92253555  2702
STARLINK-32048          
1 60156U 24120X   24189.83334491 -.01101469  36624-3 -31659-2 0  9990
2 60156  53.1496 288.3898 0001038  79.1179 290.0010 15.92454972  2709
STARLINK-32129          
1 60157U 24120Y   24189.41667824 -.01118740  38017-3 -30635-2 0  9995
2 60157  53.1503 290.5104 0000690 111.4862  28.8044 15.93381825  2808
